INTELSAT 902 (IS-902)   
1 26900U 01039A   26194.55106729 -.00000293  00000+0  00000+0 0  9990
2 26900   6.1812  71.4591 0004414  38.1703 330.0689  1.00270360 90961
INTELSAT 904 (IS-904)   
1 27380U 02007A   26194.41219659 -.00000235  00000+0  00000+0 0  9997
2 27380   6.9831  68.8659 0005362  24.3166 315.0289  1.00271020 52029
DIRECTV 5 (TEMPO 1)     
1 27426U 02023A   26194.68162455 -.00000066  00000+0  00000+0 0  9998
2 27426   4.9431  74.9787 0003028  44.4477 307.3993  1.00271120 88384
INTELSAT 905 (IS-905)   
1 27438U 02027A   26194.74770000  .00000083  00000+0  00000+0 0  9991
2 27438   6.8178  69.4764 0003439  46.7968 307.3083  1.00271391 51623
GALAXY 3C (G-3C)        
1 27445U 02030A   26194.82739895 -.00000161  00000+0  00000+0 0  9997
2 27445   3.8001  77.6283 0001494  36.9348  20.1669  1.00270726 46762
INTELSAT 906 (IS-906)   
1 27513U 02041A   26194.78753208  .00000003  00000+0  00000+0 0  9998
2 27513   5.8676  72.5928 0003873  23.1050 183.6160  1.00272862 87296
GALAXY 13 (HORIZONS-1)  
1 27954U 03044A   26194.74518667  .00000126  00000+0  00000+0 0  9991
2 27954   1.4857  83.5252 0002152  27.3083 299.0353  1.00270637 46830
INTELSAT 10-02          
1 28358U 04022A   26194.84592137 -.00000016  00000+0  00000+0 0  9991
2 28358   0.0548 249.8883 0000504 343.0769   2.2756  1.00271184 80822
DIRECTV 8               
1 28659U 05019A   26194.75090669 -.00000003  00000+0  00000+0 0  9991
2 28659   0.0141 344.2437 0003030 142.9940 315.6561  1.00271366 77333
GALAXY 28 (G-28)        
1 28702U 05022A   26194.84080801 -.00000208  00000+0  00000+0 0  9998
2 28702   3.3650  78.6041 0002485  24.2488 104.4493  1.00273598 52244
GALAXY 16 (G-16)        
1 29236U 06023A   26194.82644560 -.00000132  00000+0  00000+0 0  9995
2 29236   0.0145 190.5303 0002502 294.4717   5.2134  1.00271125 73248
DIRECTV 9S              
1 29494U 06043A   26194.82609895 -.00000121  00000+0  00000+0 0  9993
2 29494   2.4871  80.5807 0004982  33.6908  13.6172  1.00270971 51656
GALAXY 17 (G-17)        
1 31307U 07016B   26194.82930561 -.00000214  00000+0  00000+0 0  9990
2 31307   3.0365  79.5625 0003513  32.6351  33.0254  1.00271837 70079
INTELSAT 11 (IS-11)     
1 32253U 07044B   26194.84782802 -.00000134  00000+0  00000+0 0  9998
2 32253   3.6325  78.3455 0004138 100.7166  66.3869  0.99051802 68719
HORIZONS-2              
1 32388U 07063B   26194.83155897 -.00000261  00000+0  00000+0 0  9996
2 32388   2.6684  80.2982 0003522  19.5084  57.4489  1.00269599 68080
DIRECTV 11              
1 32729U 08013A   26194.61262014 -.00000130  00000+0  00000+0 0  9992
2 32729   0.0109 269.6737 0000116 300.2834 202.8868  1.00271811 45850
GALAXY 18 (G-18)        
1 32951U 08024A   26194.75047336  .00000020  00000+0  00000+0 0  9991
2 32951   0.0179  42.7768 0002805  83.1828 312.8268  1.00271011 46113
GALAXY 19 (G-19)        
1 33376U 08045A   26194.82687895 -.00000144  00000+0  00000+0 0  9992
2 33376   0.0614 249.8582 0002304 235.0100   7.5078  1.00272870 65176
FM-5                    
1 35493U 09034A   26194.82913228 -.00000205  00000+0  00000+0 0  9993
2 35493   0.0455 260.1828 0000786  86.2422 157.6014  1.00270935 46913
INTELSAT 14 (IS-14)     
1 36097U 09064A   26194.82039983 -.00000279  00000+0  00000+0 0  9995
2 36097   0.0242 297.9041 0002160 184.0797  60.0548  1.00269016 60871
INTELSAT 15 (IS-15)     
1 36106U 09067A   26194.88586391 -.00000190  00000+0  00000+0 0  9997
2 36106   0.0188 313.6120 0002199 163.9998 218.1996  1.00269239 41493
DIRECTV 12              
1 36131U 09075A   26193.89907914 -.00000104  00000+0  00000+0 0  9997
2 36131   0.0059 118.1538 0000376 110.5275 283.0374  1.00271042 46817
INTELSAT 16 (IS-16)     
1 36397U 10006A   26194.83103897 -.00000250  00000+0  00000+0 0  9992
2 36397   0.0097  33.4404 0002289 103.9521  17.2759  1.00270338 59926
XM-5                    
1 37185U 10053A   26194.27598828 -.00000026  00000+0  00000+0 0  9991
2 37185   0.0648 265.0318 0001728 322.3275  47.9546  1.00270903 57741
INTELSAT 17 (IS-17)     
1 37238U 10065B   26194.85921556 -.00000006  00000+0  00000+0 0  9993
2 37238   0.0053 191.3946 0002531 290.5253 185.1192  1.00270398 53514
INTELSAT 28 (IS-28)     
1 37392U 11016A   26194.87612815 -.00000232  00000+0  00000+0 0  9999
2 37392   1.8729  82.2904 0003695  40.5051  92.6369  1.00271263 53551
INTELSAT 18 (IS-18)     
1 37834U 11056A   26194.81049888  .00000048  00000+0  00000+0 0  9996
2 37834   0.0148 340.6921 0001669 143.7844 278.9773  1.00270355 54070
INTELSAT 22 (IS-22)     
1 38098U 12011A   26194.87565426 -.00000064  00000+0  00000+0 0  9997
2 38098   0.0109  25.6204 0001857  95.5710 197.8820  1.00272318  7452
INTELSAT 19 (IS-19)     
1 38356U 12030A   26194.80772551  .00000000  00000+0  00000+0 0  9996
2 38356   0.0268  43.5457 0003185  87.0530 257.8712  1.00269615 50716
INTELSAT 20 (IS-20)     
1 38740U 12043A   26194.87476316 -.00000030  00000+0  00000+0 0  9998
2 38740   0.0108  61.9654 0001331 107.7091 145.4857  1.00273663 51016
INTELSAT 21 (IS-21)     
1 38749U 12045A   26194.83467897 -.00000290  00000+0  00000+0 0  9997
2 38749   0.0574 255.5147 0001281 255.5025  23.1635  1.00263547 50793
INTELSAT 23 (IS-23)     
1 38867U 12057A   26194.83563230 -.00000290  00000+0  00000+0 0  9999
2 38867   0.0145  25.1619 0000336 168.0285 346.3501  1.00273836 50221
FM-6                    
1 39360U 13058A   26194.60924014 -.00000019  00000+0  00000+0 0  9995
2 39360   0.0138  31.1834 0001230 152.2695 210.9965  1.00267432 46334
INTELSAT 30 (IS-30)     
1 40271U 14062A   26194.82722560 -.00000156  00000+0  00000+0 0  9992
2 40271   0.0159  46.9890 0001469 332.6212 114.8422  1.00270855  7069
DIRECTV 14              
1 40333U 14078B   26194.68396455 -.00000130  00000+0  00000+0 0  9994
2 40333   0.0137  47.0727 0000440 281.2375 110.2274  1.00270895 42307
DIRECTV 15              
1 40663U 15026A   26194.51503031 -.00000106  00000+0  00000+0 0  9999
2 40663   0.0179  71.5022 0000065 256.9146  45.5133  1.00272384 40720
SKY MEXICO-1            
1 40664U 15026B   26194.83051897 -.00000239  00000+0  00000+0 0  9990
2 40664   0.0178  27.4608 0002330 108.1267  16.2974  1.00270379 40729
INTELSAT 34 (IS-34)     
1 40874U 15039A   26194.83519897 -.00000291  00000+0  00000+0 0  9994
2 40874   0.0105 343.6304 0000557  10.2654 182.9958  1.00271912 39905
INTELSAT 31 (IS-31)     
1 41581U 16035A   26194.72788160 -.00000155  00000+0  00000+0 0  9995
2 41581   0.0280 264.7941 0001193  24.5000 169.2959  1.00270962 36950
INTELSAT 36 (IS-36)     
1 41747U 16053A   26194.87476315 -.00000029  00000+0  00000+0 0  9991
2 41747   0.0101  22.6165 0002514 318.3716 334.1523  1.00270208 36224
INTELSAT 32E (IS-32E)   
1 41945U 17007B   26194.76633344  .00000000  00000+0  00000+0 0  9994
2 41945   0.0235  44.2470 0000485 284.5035 195.6038  1.00269936 34498
INTELSAT 35E (IS-35E)   
1 42818U 17041A   26194.86653324  .00000000  00000+0  00000+0 0  9993
2 42818   0.0248  49.4602 0001586  61.7032  98.0326  1.00267434 33082
INTELSAT 37E (IS-37E)   
1 42950U 17059A   26194.84262801 -.00000146  00000+0  00000+0 0  9995
2 42950   0.0031 118.1162 0002537   5.2623  93.6695  1.00269909 32336
AZERSPACE 2 (IS-38)     
1 43632U 18074A   26194.85514220  .00000000  00000+0  00000+0 0  9995
2 43632   0.0257  48.3073 0001256  75.4462 160.9433  1.00269893 28713
HORIZONS-3E             
1 43633U 18074B   26194.64002853 -.00000035  00000+0  00000+0 0  9996
2 43633   0.0498 224.9289 0000941  53.6947  52.2963  1.00270118 28609
AT&T T-16               
1 44333U 19034A   26194.82609895 -.00000120  00000+0  00000+0 0  9995
2 44333   0.0125  66.3669 0000635 250.1732 171.6875  1.00268301 25909
INTELSAT 39 (IS-39)     
1 44476U 19049B   26194.85843556  .00000000  00000+0  00000+0 0  9992
2 44476   0.0241  49.3108 0000726 279.3782 334.0361  1.00271688 25394
GALAXY 30 (G-30)        
1 46114U 20056C   26194.75012669  .00000032  00000+0  00000+0 0  9990
2 46114   0.0175  39.6289 0001946  75.1758 321.8537  1.00271322 21551
GALAXY 33 (G-33)        
1 54026U 22128A   26194.74856668  .00000074  00000+0  00000+0 0  9993
2 54026   0.0145  21.6934 0001750  98.6430 307.7654  1.00271650 14006
GALAXY 34 (G-34)        
1 54027U 22128B   26194.60672678  .00000000  00000+0  00000+0 0  9995
2 54027   0.0256  29.1421 0001450  98.4666 253.3005  1.00274247 14179
GALAXY 31 (G-31)        
1 54243U 22153A   26194.60837345  .00000009  00000+0  00000+0 0  9996
2 54243   0.0171  66.0837 0000944  53.9617 269.4339  1.00270713  7393
GALAXY 32 (G-32)        
1 54244U 22153B   26194.50947838 -.00000178  00000+0  00000+0 0  9993
2 54244   0.0121  29.6563 0001400  18.1075 336.0269  1.00269974 13408
GALAXY 35 (G-35)        
1 54741U 22170A   26194.82774561  .00000000  00000+0  00000+0 0  9993
2 54741   0.0255  66.8754 0001894  50.3882  19.3205  1.00268549 13165
GALAXY 36 (G-36)        
1 54742U 22170B   26194.82843896  .00000000  00000+0  00000+0 0  9992
2 54742   0.0109  83.2850 0002378  17.9872  39.6784  1.00268922 13049
GALAXY 37 (G-37)        
1 57493U 23112A   26194.60716013  .00000044  00000+0  00000+0 0  9999
2 57493   0.0209  72.2234 0001736  45.1732 265.6549  1.00271208 10807
